start=new Date('2022-01-09T00:00:00.000Z').valueOf();
sats=[{"MEAN_ANOMALY":"263.6743","ELEMENT_SET_NO":"999","APOAPSIS":"548.501","EPHEMERIS_TYPE":"0","EPOCH":"2022-01-08T17:56:42.943200","OBJECT_ID":"2021-027AL","ARG_OF_PERICENTER":"96.4452","PERIOD":"95.593","RCS_SIZE":"LARGE","REF_FRAME":"TEME","ECCENTRICITY":"0.00018080","RA_OF_ASC_NODE":"139.3820","CLASSIFICATION_TYPE":"U","FILE":"3267514","OBJECT_NAME":"STARLINK-2467","MEAN_MOTION_DOT":"0.00000849","REV_AT_EPOCH":"4346","LAUNCH_DATE":"2021-04-07","CENTER_NAME":"EARTH","DECAY_DATE":null,"OBJECT_TYPE":"PAYLOAD","MEAN_ELEMENT_THEORY":"SGP4","INCLINATION":"53.0542","MEAN_MOTION_DDOT":"0.0000000000000","PERIAPSIS":"545.997","NORAD_CAT_ID":"48126","TLE_LINE2":"2 48126  53.0542 139.3820 0001808  96.4452 263.6743 15.06388557 43461","SITE":"AFETR","GP_ID":"193490477","SEMIMAJOR_AXIS":"6925.384","MEAN_MOTION":"15.06388557","COUNTRY_CODE":"US","TLE_LINE1":"1 48126U 21027AL  22008.74771925  .00000849  00000-0  75930-4 0  9996","BSTAR":"0.00007593000000","TIME_SYSTEM":"UTC"},{"DECAY_DATE":null,"CENTER_NAME":"EARTH","MEAN_MOTION_DDOT":"0.0000000000000","INCLINATION":"53.0555","OBJECT_TYPE":"PAYLOAD","MEAN_ELEMENT_THEORY":"SGP4","PERIAPSIS":"545.819","TLE_LINE2":"2 48127  53.0555 159.7360 0002026  89.2562 270.8659 15.06397313 43169","NORAD_CAT_ID":"48127","SEMIMAJOR_AXIS":"6925.357","GP_ID":"193490727","SITE":"AFETR","MEAN_MOTION":"15.06397313","COUNTRY_CODE":"US","TIME_SYSTEM":"UTC","BSTAR":"0.00007044500000","TLE_LINE1":"1 48127U 21027AM  22008.67215327  .00000768  00000-0  70445-4 0  9994","MEAN_ANOMALY":"270.8659","EPOCH":"2022-01-08T16:07:54.042528","EPHEMERIS_TYPE":"0","APOAPSIS":"548.625","ELEMENT_SET_NO":"999","ARG_OF_PERICENTER":"89.2562","OBJECT_ID":"2021-027AM","REF_FRAME":"TEME","PERIOD":"95.592","RCS_SIZE":"LARGE","RA_OF_ASC_NODE":"159.7360","ECCENTRICITY":"0.00020260","FILE":"3267514","OBJECT_NAME":"STARLINK-2468","CLASSIFICATION_TYPE":"U","LAUNCH_DATE":"2021-04-07","MEAN_MOTION_DOT":"0.00000768","REV_AT_EPOCH":"4316"},{"REV_AT_EPOCH":"4372","MEAN_MOTION_DOT":"-0.00001915","LAUNCH_DATE":"2021-04-07","CLASSIFICATION_TYPE":"U","FILE":"3267363","OBJECT_NAME":"STARLINK-2469","ECCENTRICITY":"0.00025350","RA_OF_ASC_NODE":"90.4403","PERIOD":"95.592","RCS_SIZE":"LARGE","REF_FRAME":"TEME","OBJECT_ID":"2021-027AN","ARG_OF_PERICENTER":"143.1788","ELEMENT_SET_NO":"999","APOAPSIS":"548.953","EPHEMERIS_TYPE":"0","EPOCH":"2022-01-08T12:16:58.589472","MEAN_ANOMALY":"216.9375","TLE_LINE1":"1 48128U 21027AN  22008.51178923 -.00001915  00000-0 -10964-3 0  9994","BSTAR":"-0.00010964000000","TIME_SYSTEM":"UTC","COUNTRY_CODE":"US","MEAN_MOTION":"15.06405397","SITE":"AFETR","GP_ID":"193466404","SEMIMAJOR_AXIS":"6925.332","NORAD_CAT_ID":"48128","TLE_LINE2":"2 48128  53.0577  90.4403 0002535 143.1788 216.9375 15.06405397 43728","PERIAPSIS":"545.441","OBJECT_TYPE":"PAYLOAD","MEAN_ELEMENT_THEORY":"SGP4","INCLINATION":"53.0577","MEAN_MOTION_DDOT":"0.0000000000000","CENTER_NAME":"EARTH","DECAY_DATE":null},{"DECAY_DATE":null,"CENTER_NAME":"EARTH","MEAN_MOTION_DDOT":"0.0000000000000","INCLINATION":"53.0554","MEAN_ELEMENT_THEORY":"SGP4","OBJECT_TYPE":"PAYLOAD","PERIAPSIS":"545.772","NORAD_CAT_ID":"48129","TLE_LINE2":"2 48129  53.0554 159.1714 0002030  93.4358 266.6863 15.06411531 43183","SEMIMAJOR_AXIS":"6925.313","GP_ID":"193491229","SITE":"AFETR","MEAN_MOTION":"15.06411531","COUNTRY_CODE":"US","TLE_LINE1":"1 48129U 21027AP  22008.79747660  .00001368  00000-0  11071-3 0  9995","BSTAR":"0.00011071000000","TIME_SYSTEM":"UTC","MEAN_ANOMALY":"266.6863","EPOCH":"2022-01-08T19:08:21.978240","ELEMENT_SET_NO":"999","APOAPSIS":"548.584","EPHEMERIS_TYPE":"0","ARG_OF_PERICENTER":"93.4358","OBJECT_ID":"2021-027AP","PERIOD":"95.591","RCS_SIZE":"LARGE","REF_FRAME":"TEME","ECCENTRICITY":"0.00020300","RA_OF_ASC_NODE":"159.1714","CLASSIFICATION_TYPE":"U","OBJECT_NAME":"STARLINK-2471","FILE":"3267514","MEAN_MOTION_DOT":"0.00001368","REV_AT_EPOCH":"4318","LAUNCH_DATE":"2021-04-07"},{"LAUNCH_DATE":"2021-04-07","MEAN_MOTION_DOT":"0.00000604","REV_AT_EPOCH":"4312","RA_OF_ASC_NODE":"163.9220","ECCENTRICITY":"0.00021160","FILE":"3267514","OBJECT_NAME":"STARLINK-2472","CLASSIFICATION_TYPE":"U","OBJECT_ID":"2021-027AQ","ARG_OF_PERICENTER":"86.3749","REF_FRAME":"TEME","RCS_SIZE":"LARGE","PERIOD":"95.592","MEAN_ANOMALY":"273.7482","EPHEMERIS_TYPE":"0","APOAPSIS":"548.679","ELEMENT_SET_NO":"999","EPOCH":"2022-01-08T20:28:37.356960","COUNTRY_CODE":"US","TIME_SYSTEM":"UTC","TLE_LINE1":"1 48130U 21027AQ  22008.85321015  .00000604  00000-0  59456-4 0  9998","BSTAR":"0.00005945600000","GP_ID":"193489977","SITE":"AFETR","SEMIMAJOR_AXIS":"6925.348","MEAN_MOTION":"15.06400035","PERIAPSIS":"545.748","TLE_LINE2":"2 48130  53.0537 163.9220 0002116  86.3749 273.7482 15.06400035 43128","NORAD_CAT_ID":"48130","CENTER_NAME":"EARTH","DECAY_DATE":null,"OBJECT_TYPE":"PAYLOAD","MEAN_ELEMENT_THEORY":"SGP4","INCLINATION":"53.0537","MEAN_MOTION_DDOT":"0.0000000000000"},{"OBJECT_ID":"2021-027AR","ARG_OF_PERICENTER":"99.1752","PERIOD":"95.593","RCS_SIZE":"LARGE","REF_FRAME":"TEME","MEAN_ANOMALY":"260.9466","ELEMENT_SET_NO":"999","APOAPSIS":"548.642","EPHEMERIS_TYPE":"0","EPOCH":"2022-01-08T20:57:10.655136","MEAN_MOTION_DOT":"0.00001047","REV_AT_EPOCH":"4347","LAUNCH_DATE":"2021-04-07","ECCENTRICITY":"0.00020220","RA_OF_ASC_NODE":"138.8345","CLASSIFICATION_TYPE":"U","FILE":"3267514","OBJECT_NAME":"STARLINK-2473","PERIAPSIS":"545.842","NORAD_CAT_ID":"48131","TLE_LINE2":"2 48131  53.0532 138.8345 0002022  99.1752 260.9466 15.06390762 43478","CENTER_NAME":"EARTH","DECAY_DATE":null,"MEAN_ELEMENT_THEORY":"SGP4","OBJECT_TYPE":"PAYLOAD","MEAN_MOTION_DDOT":"0.0000000000000","INCLINATION":"53.0532","COUNTRY_CODE":"US","TLE_LINE1":"1 48131U 21027AR  22008.87303999  .00001047  00000-0  89210-4 0  9995","BSTAR":"0.00008921000000","TIME_SYSTEM":"UTC","GP_ID":"193490227","SITE":"AFETR","SEMIMAJOR_AXIS":"6925.377","MEAN_MOTION":"15.06390762"},{"REF_FRAME":"TEME","PERIOD":"95.592","RCS_SIZE":"LARGE","ARG_OF_PERICENTER":"87.2168","OBJECT_ID":"2021-027AS","EPOCH":"2022-01-08T17:16:54.651936","APOAPSIS":"548.761","EPHEMERIS_TYPE":"0","ELEMENT_SET_NO":"999","MEAN_ANOMALY":"272.9076","LAUNCH_DATE":"2021-04-07","MEAN_MOTION_DOT":"0.00000590","REV_AT_EPOCH":"4316","FILE":"3267514","OBJECT_NAME":"STARLINK-2474","CLASSIFICATION_TYPE":"U","RA_OF_ASC_NODE":"159.5249","ECCENTRICITY":"0.00022260","TLE_LINE2":"2 48132  53.0558 159.5249 0002226  87.2168 272.9076 15.06398159 43169","NORAD_CAT_ID":"48132","PERIAPSIS":"545.678","MEAN_MOTION_DDOT":"0.0000000000000","INCLINATION":"53.0558","OBJECT_TYPE":"PAYLOAD","MEAN_ELEMENT_THEORY":"SGP4","DECAY_DATE":null,"CENTER_NAME":"EARTH","TIME_SYSTEM":"UTC","BSTAR":"0.00005852400000","TLE_LINE1":"1 48132U 21027AS  22008.72007699  .00000590  00000-0  58524-4 0  9994","COUNTRY_CODE":"US","MEAN_MOTION":"15.06398159","SEMIMAJOR_AXIS":"6925.354","GP_ID":"193490979","SITE":"AFETR"},{"CENTER_NAME":"EARTH","DECAY_DATE":null,"MEAN_ELEMENT_THEORY":"SGP4","OBJECT_TYPE":"PAYLOAD","MEAN_MOTION_DDOT":"0.0000000000000","INCLINATION":"53.0554","PERIAPSIS":"545.846","TLE_LINE2":"2 48133  53.0554 159.5405 0001984  94.8261 265.2955 15.06397872 43171","NORAD_CAT_ID":"48133","GP_ID":"193491730","SITE":"AFETR","SEMIMAJOR_AXIS":"6925.355","MEAN_MOTION":"15.06397872","COUNTRY_CODE":"US","TIME_SYSTEM":"UTC","TLE_LINE1":"1 48133U 21027AT  22008.71638789 -.00000752  00000-0 -31596-4 0  9996","BSTAR":"-0.00003159600000","MEAN_ANOMALY":"265.2955","EPHEMERIS_TYPE":"0","APOAPSIS":"548.594","ELEMENT_SET_NO":"999","EPOCH":"2022-01-08T17:11:35.913696","OBJECT_ID":"2021-027AT","ARG_OF_PERICENTER":"94.8261","REF_FRAME":"TEME","PERIOD":"95.592","RCS_SIZE":"LARGE","RA_OF_ASC_NODE":"159.5405","ECCENTRICITY":"0.00019840","FILE":"3267514","OBJECT_NAME":"STARLINK-2475","CLASSIFICATION_TYPE":"U","LAUNCH_DATE":"2021-04-07","MEAN_MOTION_DOT":"-0.00000752","REV_AT_EPOCH":"4317"},{"EPHEMERIS_TYPE":"0","APOAPSIS":"548.765","ELEMENT_SET_NO":"999","EPOCH":"2022-01-08T16:50:22.511616","MEAN_ANOMALY":"266.7759","REF_FRAME":"TEME","PERIOD":"95.592","RCS_SIZE":"LARGE","OBJECT_ID":"2021-027AU","ARG_OF_PERICENTER":"93.3483","OBJECT_NAME":"STARLINK-2476","FILE":"3267514","CLASSIFICATION_TYPE":"U","RA_OF_ASC_NODE":"159.6037","ECCENTRICITY":"0.00022170","LAUNCH_DATE":"2021-04-07","MEAN_MOTION_DOT":"0.00000696","REV_AT_EPOCH":"4316","OBJECT_TYPE":"PAYLOAD","MEAN_ELEMENT_THEORY":"SGP4","INCLINATION":"53.0555","MEAN_MOTION_DDOT":"0.0000000000000","CENTER_NAME":"EARTH","DECAY_DATE":null,"TLE_LINE2":"2 48134  53.0555 159.6037 0002217  93.3483 266.7759 15.06394834 43167","NORAD_CAT_ID":"48134","PERIAPSIS":"545.694","MEAN_MOTION":"15.06394834","GP_ID":"193490478","SITE":"AFETR","SEMIMAJOR_AXIS":"6925.364","TIME_SYSTEM":"UTC","TLE_LINE1":"1 48134U 21027AU  22008.70164944  .00000696  00000-0  65667-4 0  9994","BSTAR":"0.00006566700000","COUNTRY_CODE":"US"},{"MEAN_MOTION":"15.06402121","SEMIMAJOR_AXIS":"6925.342","GP_ID":"193490728","SITE":"AFETR","TIME_SYSTEM":"UTC","BSTAR":"0.00007917000000","TLE_LINE1":"1 48135U 21027AV  22008.68734901  .00000898  00000-0  79170-4 0  9996","COUNTRY_CODE":"US","INCLINATION":"53.0548","MEAN_MOTION_DDOT":"0.0000000000000","MEAN_ELEMENT_THEORY":"SGP4","OBJECT_TYPE":"PAYLOAD","DECAY_DATE":null,"CENTER_NAME":"EARTH","TLE_LINE2":"2 48135  53.0548 164.6658 0002296  91.6268 268.4984 15.06402121 43094","NORAD_CAT_ID":"48135","PERIAPSIS":"545.617","FILE":"3267514","OBJECT_NAME":"STARLINK-2478","CLASSIFICATION_TYPE":"U","RA_OF_ASC_NODE":"164.6658","ECCENTRICITY":"0.00022960","LAUNCH_DATE":"2021-04-07","REV_AT_EPOCH":"4309","MEAN_MOTION_DOT":"0.00000898","EPOCH":"2022-01-08T16:29:46.954464","EPHEMERIS_TYPE":"0","APOAPSIS":"548.797","ELEMENT_SET_NO":"999","MEAN_ANOMALY":"268.4984","REF_FRAME":"TEME","RCS_SIZE":"LARGE","PERIOD":"95.592","ARG_OF_PERICENTER":"91.6268","OBJECT_ID":"2021-027AV"}];
